1 33315U 08040D   12312.03809236  .00000450  00000-0  66481-4 0  9995
2 33315 097.9110 037.7320 0012919 006.6863 353.4510 14.79915428226389
1 33315U 08040D   12312.84944240  .00000413  00000-0  61604-4 0  9990
2 33315 097.9108 038.5310 0012886 004.0776 356.0523 14.79915835226501
1 33315U 08040D   12313.05228006  .00000391  00000-0  58708-4 0  9995
2 33315 097.9107 038.7306 0012847 003.4323 356.6962 14.79915815226539
1 33315U 08040D   12313.39034247  .00000385  00000-0  57833-4 0  9995
2 33315 097.9106 039.0636 0012823 002.3720 357.7543 14.79916063226589
1 33315U 08040D   12313.86362975  .00000367  00000-0  55477-4 0  9991
2 33315 097.9107 039.5298 0012808 000.7643 359.3570 14.79916254226656
1 33315U 08040D   12314.06646737  .00000354  00000-0  53714-4 0  9993
2 33315 097.9106 039.7297 0012789 000.1386 359.9822 14.79916311226685
1 33315U 08040D   12314.40452932  .00000368  00000-0  55642-4 0  9990
2 33315 097.9105 040.0628 0012771 359.0317 001.0870 14.79916768226738
1 33315U 08040D   12314.74259135  .00000382  00000-0  57497-4 0  9993
2 33315 097.9105 040.3957 0012757 358.0609 002.0559 14.79917187226789
1 33315U 08040D   12315.01304101  .00000369  00000-0  55684-4 0  9999
2 33315 097.9104 040.6621 0012749 357.1082 003.0056 14.79917276226822
1 33315U 08040D   12315.55393973  .00000373  00000-0  56220-4 0  9995
2 33315 097.9102 041.1949 0012712 355.2982 004.8110 14.79917852226906
1 33315U 08040D   12315.68916444  .00000383  00000-0  57561-4 0  9993
2 33315 097.9103 041.3282 0012701 354.9221 005.1867 14.79918067226923
1 33315U 08040D   12316.02722630  .00000367  00000-0  55447-4 0  9997
2 33315 097.9103 041.6612 0012671 353.7843 006.3211 14.79918188226971
1 33315U 08040D   12316.36528784  .00000369  00000-0  55797-4 0  9998
2 33315 097.9102 041.9943 0012661 352.6661 007.4364 14.79918546227021
1 33315U 08040D   12316.70334950  .00000369  00000-0  55698-4 0  9996
2 33315 097.9103 042.3275 0012648 351.5605 008.5394 14.79918830227072
1 33315U 08040D   12317.04141127  .00000348  00000-0  53005-4 0  9993
2 33315 097.9103 042.6605 0012596 350.4533 009.6431 14.79918885227122
1 33315U 08040D   12317.51469749  .00000348  00000-0  52933-4 0  9997
2 33315 097.9103 043.1267 0012582 348.9007 011.1925 14.79919289227197
1 33315U 08040D   12317.85275908  .00000343  00000-0  52333-4 0  9995
2 33315 097.9105 043.4599 0012582 347.7270 012.3624 14.79919451227245
1 33315U 08040D   12318.05559615  .00000335  00000-0  51188-4 0  9996
2 33315 097.9104 043.6597 0012562 347.1015 012.9869 14.79919529227279
1 33315U 08040D   12318.39365746  .00000347  00000-0  52844-4 0  9996
2 33315 097.9102 043.9926 0012531 345.8510 014.2351 14.79919940227321
1 33315U 08040D   12318.86694308  .00000363  00000-0  54893-4 0  9991
2 33315 097.9105 044.4589 0012514 344.3607 015.7207 14.79920427227392
1 33315U 08040D   12319.06978003  .00000366  00000-0  55316-4 0  9995
2 33315 097.9106 044.6589 0012498 343.7355 016.3461 14.79920637227425
1 33315U 08040D   12319.40784047  .00000398  00000-0  59624-4 0  9997
2 33315 097.9106 044.9920 0012492 342.4154 017.6627 14.79921294227477
1 33315U 08040D   12319.88112558  .00000431  00000-0  63889-4 0  9997
2 33315 097.9106 045.4583 0012486 340.9436 019.1315 14.79922063227541
1 33315U 08040D   12320.01634981  .00000439  00000-0  65037-4 0  9998
2 33315 097.9108 045.5916 0012491 340.6140 019.4603 14.79922297227563
1 33315U 08040D   12320.35440984  .00000478  00000-0  70099-4 0  9990
2 33315 097.9105 045.9246 0012473 339.2271 020.8444 14.79923082227617
1 33315U 08040D   12320.69247010  .00000523  00000-0  76077-4 0  9995
2 33315 097.9107 046.2577 0012367 338.3404 021.7315 14.79923948227663
1 33315U 08040D   12320.89530580  .00000536  00000-0  77896-4 0  9998
2 33315 097.9107 046.4575 0012347 337.7647 022.3035 14.79924305227690
1 33315U 08040D   12321.03052984  .00000546  00000-0  79150-4 0  9998
2 33315 097.9106 046.5907 0012353 337.2541 022.8137 14.79924600227713
1 33315U 08040D   12321.36858936  .00000580  00000-0  83685-4 0  9991
2 33315 097.9104 046.9237 0012317 335.8767 024.1876 14.79925383227764
1 33315U 08040D   12321.84187279  .00000633  00000-0  90643-4 0  9990
2 33315 097.9107 047.3902 0012254 334.5779 025.4830 14.79926500227834
1 33315U 08040D   12322.24754439  .00000681  00000-0  97077-4 0  9994
2 33315 097.9106 047.7898 0012171 332.9273 027.1337 14.79927559227892
1 33315U 08040D   12322.51799142  .00000687  00000-0  97867-4 0  9997
2 33315 097.9106 048.0561 0012178 332.0372 028.0187 14.79928025227938
1 33315U 08040D   12322.72082714  .00000724  00000-0  10265-3 0  9998
2 33315 097.9108 048.2563 0012192 331.6521 028.4038 14.79928633227968
1 33315U 08040D   12323.05888641  .00000744  00000-0  10530-3 0  9995
2 33315 097.9106 048.5891 0012159 330.4251 029.6286 14.79929326228018
1 33315U 08040D   12323.39694488  .00000783  00000-0  11051-3 0  9998
2 33315 097.9105 048.9221 0012163 329.1096 030.9404 14.79930255228060
1 33315U 08040D   12323.87022702  .00000829  00000-0  11663-3 0  9995
2 33315 097.9106 049.3884 0012121 327.8006 032.2461 14.79931451228136
1 33315U 08040D   12324.20828541  .00000885  00000-0  12397-3 0  9995
2 33315 097.9104 049.7214 0012063 326.3554 033.6914 14.79932593228183
1 33315U 08040D   12324.41112011  .00000896  00000-0  12550-3 0  9999
2 33315 097.9104 049.9213 0012078 325.6551 034.3888 14.79933085228218
1 33315U 08040D   12324.68156667  .00000927  00000-0  12950-3 0  9992
2 33315 097.9104 050.1876 0012042 324.9476 035.0952 14.79933865228256
1 33315U 08040D   12325.01962476  .00000933  00000-0  13032-3 0  9992
2 33315 097.9104 050.5205 0012036 323.8411 036.1986 14.79934557228300
1 33315U 08040D   12325.35768238  .00000951  00000-0  13276-3 0  9999
2 33315 097.9102 050.8536 0011997 322.4761 037.5612 14.79935431228354
1 33315U 08040D   12325.89857484  .00000956  00000-0  13335-3 0  9991
2 33315 097.9103 051.3864 0011960 320.7179 039.3154 14.79936520228439
1 33315U 08040D   12326.03379811  .00000946  00000-0  13205-3 0  9996
2 33315 097.9103 051.5196 0011922 320.1663 039.8671 14.79936713228454
1 33315U 08040D   12326.43946719  .00000945  00000-0  13189-3 0  9997
2 33315 097.9102 051.9191 0011903 318.7734 041.2578 14.79937528228518
1 33315U 08040D   12326.77752465  .00000935  00000-0  13065-3 0  9999
2 33315 097.9103 052.2522 0011920 317.6514 042.3772 14.79938106228560
